QIANFAN-37              
1 62238U 24232B   26168.11360852  .00000086  00000+0  11402-3 0  9997
2 62238  89.0072  22.5925 0001424  78.9206 281.2105 13.51008894124338
QIANFAN-38              
1 62239U 24232C   26168.13827988  .00000078  00000+0  10294-3 0  9997
2 62239  89.0078  22.5185 0015422  23.9265 336.2600 13.51005924124399
QIANFAN-39              
1 62240U 24232D   26168.14992372  .00000217  00000+0  85467-4 0  9990
2 62240  89.0060  16.0712 0015842 179.6584 180.4622 14.25525943127942
QIANFAN-40              
1 62241U 24232E   26168.17118667  .00000076  00000+0  99621-4 0  9991
2 62241  89.0106  22.1518 0014704  31.7147 328.4887 13.51007624124768
QIANFAN-41              
1 62242U 24232F   26168.10539369  .00000091  00000+0  12167-3 0  9997
2 62242  89.0076  22.4699 0014708  20.6155 339.5587 13.51009974124410
QIANFAN-42              
1 62243U 24232G   26168.12618439  .00000211  00000+0  84360-4 0  9995
2 62243  89.0058  16.1487 0014416 185.9427 174.1597 14.24614926127900
QIANFAN-43              
1 62244U 24232H   26168.17533412  .00000083  00000+0  11037-3 0  9995
2 62244  89.0081  22.5365 0016398  24.6452 335.5479 13.51009703 93039
QIANFAN-44              
1 62245U 24232J   26168.16297094  .00000071  00000+0  92093-4 0  9997
2 62245  89.0079  22.3454 0014527  22.7515 337.4277 13.51011722124503
QIANFAN-45              
1 62246U 24232K   26168.13009683  .00000071  00000+0  91455-4 0  9991
2 62246  89.0083  22.5019 0015181  22.1268 338.0535 13.51009227124426
QIANFAN-46              
1 62247U 24232L   26168.15476829  .00000066  00000+0  82805-4 0  9997
2 62247  89.0079  22.5607 0015401  27.2452 332.9504 13.51010019124386
QIANFAN-47              
1 62248U 24232M   26168.15888115  .00000081  00000+0  10708-3 0  9992
2 62248  89.0075  22.4858 0015803  26.2321 333.9627 13.51008825124413
QIANFAN-48              
1 62249U 24232N   26168.12180486  .00000081  00000+0  10721-3 0  9991
2 62249  89.0079  22.4986 0018130  27.9286 332.2834 13.51013410124412
QIANFAN-49              
1 62250U 24232P   26168.10947841  .00000085  00000+0  11260-3 0  9990
2 62250  89.0078  22.5109 0015057  24.0289 336.1561 13.51012042 93007
QIANFAN-50              
1 62251U 24232Q   26168.13420537  .00000076  00000+0  99652-4 0  9994
2 62251  89.0083  22.5267 0016743  24.5174 335.6769 13.51008856 93035
QIANFAN-51              
1 62252U 24232R   26168.11771002  .00000074  00000+0  96622-4 0  9991
2 62252  89.0077  22.5108 0014373  29.1211 331.0739 13.51005626 93021
QIANFAN-52              
1 62253U 24232S   26168.14651116  .00000093  00000+0  12579-3 0  9997
2 62253  89.0073  22.3743 0016108  20.8453 339.3352 13.51011176 93114
QIANFAN-53              
1 62254U 24232T   26168.12592352  .00000064  00000+0  80451-4 0  9995
2 62254  89.0081  22.4949 0015036  22.4790 337.7017 13.51008025 93078
QIANFAN-54              
1 62255U 24232U   26168.16707075  .00000074  00000+0  95607-4 0  9990
2 62255  89.0072  22.1528 0004046  71.1869 288.9721 13.51011998124589
PROBA-3 CSC             
1 62256U 24233A   26167.48839492 -.00000319  00000+0  21263-2 0  9993
2 62256  59.7021  97.5372 8002505 205.5638  68.8708  1.22073990  6814
PROBA-3 OSC             
1 62258U 24233C   26167.48839175 -.00000320  00000+0  19164-2 0  9992
2 62258  59.7055  97.5389 8002640 205.5627  68.8704  1.22074056  6808
SXM-9                   
1 62259U 24234A   26166.17089873 -.00000201  00000+0  00000+0 0  9995
2 62259   0.0154 329.8046 0005128 344.6729 285.3514  1.00271431  5551
SENTINEL-1C             
1 62261U 24235A   26168.19868632  .00000125  00000+0  36550-4 0  9999
2 62261  98.1820 175.5092 0001367  89.4599 270.6757 14.58604584 81410
STARLINK-32632          
1 62262U 24231V   26168.13340884  .00013733  00000+0  45324-3 0  9991
2 62262  53.1595 117.7242 0001102  79.8188 280.2938 15.31717095 86990
STARLINK-11496 [DTC]    
1 62267U 24237A   26167.34004411  .00130796  00000+0  10040-2 0  9992
2 62267  42.9985 182.3173 0000669 234.5008 125.5798 15.70909067 88568
STARLINK-11501 [DTC]    
1 62268U 24237B   26167.75327109  .00199295  00000+0  15137-2 0  9991
2 62268  42.9999 179.3822 0001742 290.6748  69.3933 15.70933633 88582
STARLINK-11491 [DTC]    
1 62269U 24237C   26167.93870829  .00235051  00000+0  17806-2 0  9990
2 62269  42.9994 178.1846 0001261 256.0739 103.9988 15.70885055 88661
STARLINK-11479 [DTC]    
1 62270U 24237D   26167.31880734  .00133313  00000+0  10231-2 0  9993
2 62270  43.0009 182.1453 0001346 242.9996 117.0735 15.70903958 88562
STARLINK-11489 [DTC]    
1 62271U 24237E   26167.73746796  .00109988  00000+0  84741-3 0  9998
2 62271  42.9970 180.1463 0002300 274.2984  85.7620 15.70893289 88629
STARLINK-11494 [DTC]    
1 62272U 24237F   26168.09772653  .00183244  00000+0  13922-2 0  9999
2 62272  43.0007 177.6744 0002595 280.6218  79.4357 15.70977434 88636
STARLINK-11333 [DTC]    
1 62273U 24237G   26167.72685341  .00128369  00000+0  98712-3 0  9994
2 62273  43.0016 180.0598 0001529 288.4499  71.6202 15.70873978 88625
