OBJECT_NAME,OBJECT_ID,EPOCH,MEAN_MOTION,ECCENTRICITY,INCLINATION,RA_OF_ASC_NODE,ARG_OF_PERICENTER,MEAN_ANOMALY,EPHEMERIS_TYPE,CLASSIFICATION_TYPE,NORAD_CAT_ID,ELEMENT_SET_NO,REV_AT_EPOCH,BSTAR,MEAN_MOTION_DOT,MEAN_MOTION_DDOT
QIANFAN-37,2024-232B,2026-06-17T02:43:35.776128,13.51008894,.0001424,89.0072,22.5925,78.9206,281.2105,0,U,62238,999,12433,.11402E-3,.86E-6,0
QIANFAN-38,2024-232C,2026-06-17T03:19:07.381632,13.51005924,.0015422,89.0078,22.5185,23.9265,336.2600,0,U,62239,999,12439,.10294E-3,.78E-6,0
QIANFAN-39,2024-232D,2026-06-17T03:35:53.409408,14.25525943,.0015842,89.0060,16.0712,179.6584,180.4622,0,U,62240,999,12794,.85467E-4,.217E-5,0
QIANFAN-40,2024-232E,2026-06-17T04:06:30.528288,13.51007624,.0014704,89.0106,22.1518,31.7147,328.4887,0,U,62241,999,12476,.99621E-4,.76E-6,0
QIANFAN-41,2024-232F,2026-06-17T02:31:46.014816,13.51009974,.0014708,89.0076,22.4699,20.6155,339.5587,0,U,62242,999,12441,.12167E-3,.91E-6,0
QIANFAN-42,2024-232G,2026-06-17T03:01:42.331296,14.24614926,.0014416,89.0058,16.1487,185.9427,174.1597,0,U,62243,999,12790,.8436E-4,.211E-5,0
QIANFAN-43,2024-232H,2026-06-17T04:12:28.867968,13.51009703,.0016398,89.0081,22.5365,24.6452,335.5479,0,U,62244,999,9303,.11037E-3,.83E-6,0
QIANFAN-44,2024-232J,2026-06-17T03:54:40.689216,13.51011722,.0014527,89.0079,22.3454,22.7515,337.4277,0,U,62245,999,12450,.92093E-4,.71E-6,0
QIANFAN-45,2024-232K,2026-06-17T03:07:20.366112,13.51009227,.0015181,89.0083,22.5019,22.1268,338.0535,0,U,62246,999,12442,.91455E-4,.71E-6,0
QIANFAN-46,2024-232L,2026-06-17T03:42:51.980256,13.51010019,.0015401,89.0079,22.5607,27.2452,332.9504,0,U,62247,999,12438,.82805E-4,.66E-6,0
QIANFAN-47,2024-232M,2026-06-17T03:48:47.331360,13.51008825,.0015803,89.0075,22.4858,26.2321,333.9627,0,U,62248,999,12441,.10708E-3,.81E-6,0
QIANFAN-48,2024-232N,2026-06-17T02:55:23.939904,13.51013410,.001813,89.0079,22.4986,27.9286,332.2834,0,U,62249,999,12441,.10721E-3,.81E-6,0
QIANFAN-49,2024-232P,2026-06-17T02:37:38.934624,13.51012042,.0015057,89.0078,22.5109,24.0289,336.1561,0,U,62250,999,9300,.1126E-3,.85E-6,0
QIANFAN-50,2024-232Q,2026-06-17T03:13:15.343968,13.51008856,.0016743,89.0083,22.5267,24.5174,335.6769,0,U,62251,999,9303,.99652E-4,.76E-6,0
QIANFAN-51,2024-232R,2026-06-17T02:49:30.145728,13.51005626,.0014373,89.0077,22.5108,29.1211,331.0739,0,U,62252,999,9302,.96622E-4,.74E-6,0
QIANFAN-52,2024-232S,2026-06-17T03:30:58.564224,13.51011176,.0016108,89.0073,22.3743,20.8453,339.3352,0,U,62253,999,9311,.12579E-3,.93E-6,0
QIANFAN-53,2024-232T,2026-06-17T03:01:19.792128,13.51008025,.0015036,89.0081,22.4949,22.4790,337.7017,0,U,62254,999,9307,.80451E-4,.64E-6,0
QIANFAN-54,2024-232U,2026-06-17T04:00:34.912800,13.51011998,.0004046,89.0072,22.1528,71.1869,288.9721,0,U,62255,999,12458,.95607E-4,.74E-6,0
PROBA-3 CSC,2024-233A,2026-06-16T11:43:17.321088,1.22073990,.80025054,59.7021,97.5372,205.5638,68.8708,0,U,62256,999,681,.2126279E-2,-.319E-5,0
PROBA-3 OSC,2024-233C,2026-06-16T11:43:17.047200,1.22074056,.80026403,59.7055,97.5389,205.5627,68.8704,0,U,62258,999,680,.19163744E-2,-.32E-5,0
SXM-9,2024-234A,2026-06-15T04:06:05.650272,1.00271431,.00051282,0.0154,329.8046,344.6729,285.3514,0,U,62259,999,555,0,-.201E-5,0
SENTINEL-1C,2024-235A,2026-06-17T04:46:06.498048,14.58604584,.0001367,98.1820,175.5092,89.4599,270.6757,0,U,62261,999,8141,.3655E-4,.125E-5,0
STARLINK-32632,2024-231V,2026-06-17T03:12:06.523776,15.31717095,.0001102,53.1595,117.7242,79.8188,280.2938,0,U,62262,999,8699,.45324E-3,.13733E-3,0
STARLINK-11496 [DTC],2024-237A,2026-06-16T08:09:39.811104,15.70909067,.00006692,42.9985,182.3173,234.5008,125.5798,0,U,62267,999,8856,.10039508E-2,.130796E-2,0
STARLINK-11501 [DTC],2024-237B,2026-06-16T18:04:42.622176,15.70933633,.0001742,42.9999,179.3822,290.6748,69.3933,0,U,62268,999,8858,.15137E-2,.199295E-2,0
STARLINK-11491 [DTC],2024-237C,2026-06-16T22:31:44.396256,15.70885055,.0001261,42.9994,178.1846,256.0739,103.9988,0,U,62269,999,8866,.17806E-2,.235051E-2,0
STARLINK-11479 [DTC],2024-237D,2026-06-16T07:39:04.954176,15.70903958,.00013469,43.0009,182.1453,242.9996,117.0735,0,U,62270,999,8856,.10231128E-2,.133313E-2,0
STARLINK-11489 [DTC],2024-237E,2026-06-16T17:41:57.231744,15.70893289,.00023,42.9970,180.1463,274.2984,85.7620,0,U,62271,999,8862,.84741E-3,.109988E-2,0
STARLINK-11494 [DTC],2024-237F,2026-06-17T02:20:43.572192,15.70977434,.0002595,43.0007,177.6744,280.6218,79.4357,0,U,62272,999,8863,.13922E-2,.183244E-2,0
STARLINK-11333 [DTC],2024-237G,2026-06-16T17:26:40.134624,15.70873978,.0001529,43.0016,180.0598,288.4499,71.6202,0,U,62273,999,8862,.98712E-3,.128369E-2,0
